1 23581U 95025A   99235.28013677 -.00000127  00000-0  00000-0 0  6237
2 23581   0.4903  92.7467 0003851 195.6811  42.9985  1.00261555 15570
1 23581U 95025A   99235.62446678 -.00000127  00000-0  00000+0 0  6235
2 23581   0.4907  92.6496 0003476 201.8497 161.2181  1.00261542 15588
1 23581U 95025A   99235.62446678 -.00000127  00000-0  00000-0 0  6236
2 23581   0.4907  92.6496 0003476 201.8497 161.2181  1.00261542 15588
1 23581U 95025A   99235.62446678 -.00000127  00000-0  00000-0 0  6247
2 23581   0.4907  92.6496 0003476 201.8497 161.2181  1.00261542 15588
1 23581U 95025A   99235.62446678 -.00000127  00000-0  00000-0 0  6258
2 23581   0.4907  92.6496 0003476 201.8497 161.2181  1.00261542 15588
1 23581U 95025A   99235.62446678 -.00000127  00000-0  00000-0 0  6269
2 23581   0.4907  92.6496 0003476 201.8497 161.2181  1.00261542 15588
1 23581U 95025A   99239.33791076 -.00000127  00000-0  00000-0 0  6277
2 23581   0.4988  92.6262 0003538 198.2658  65.1840  1.00261347 15616
1 23581U 95025A   99239.33791076 -.00000127  00000-0  00000-0 0  6288
2 23581   0.4988  92.6262 0003538 198.2658  65.1840  1.00261347 15616
1 23581U 95025A   99240.34450291 -.00000128  00000-0  00000-0 0  6294
2 23581   0.5006  92.6293 0003541 195.9792  70.7954  1.00261314 15622
1 23581U 95025A   99240.34450291 -.00000128  00000-0  00000-0 0  6306
2 23581   0.5006  92.6293 0003541 195.9792  70.7954  1.00261314 15622
1 23581U 95025A   99241.39243566 -.00000128  00000-0  00000-0 0  6318
2 23581   0.5025  92.6056 0003587 196.3684  88.6784  1.00261258 15643
1 23581U 95025A   99241.39243566 -.00000128  00000-0  00000-0 0  6329
2 23581   0.5025  92.6056 0003587 196.3684  88.6784  1.00261258 15643
1 23581U 95025A   99242.42809522 -.00000128  00000-0  00000+0 0  6334
2 23581   0.5049  92.6107 0003641 198.0120 100.8509  1.00261242 15657
1 23581U 95025A   99242.42809522 -.00000128  00000-0  00000-0 0  6335
2 23581   0.5049  92.6107 0003641 198.0120 100.8509  1.00261242 15657
1 23581U 95025A   99242.42809522 -.00000128  00000-0  00000-0 0  6346
2 23581   0.5049  92.6107 0003641 198.0120 100.8509  1.00261242 15657
1 23581U 95025A   99242.42809522 -.00000128  00000-0  00000-0 0  6357
2 23581   0.5049  92.6107 0003641 198.0120 100.8509  1.00261242 15657
1 23581U 95025A   99242.42809522 -.00000128  00000-0  00000-0 0  6379
2 23581   0.5049  92.6107 0003641 198.0120 100.8509  1.00261242 15657
1 23581U 95025A   99245.46293522 -.00000133  00000-0  00000+0 0  6389
2 23581   0.5106  92.6230 0003977 198.6989 115.5795  1.00261321 15680
1 23581U 95025A   99245.46293522 -.00000133  00000-0  00000-0 0  6391
2 23581   0.5106  92.6230 0003977 198.6989 115.5795  1.00261321 15680
1 23581U 95025A   99245.46293522 -.00000133  00000-0  00000-0 0  6403
2 23581   0.5106  92.6230 0003977 198.6989 115.5795  1.00261321 15680
1 23581U 95025A   99248.24550913 -.00000141  00000-0  00000-0 0  6423
2 23581   0.5185  92.5589 0003110 203.4848  35.2058  1.00260917 15704
1 23581U 95025A   99248.24550913 -.00000141  00000-0  00000+0 0  6422
2 23581   0.5185  92.5589 0003110 203.4848  35.2058  1.00260917 15704
1 23581U 95025A   99249.20152008 -.00000143  00000-0  00000-0 0  6447
2 23581   0.5205  92.5677 0003096 203.2589  20.4915  1.00260876 15711
1 23581U 95025A   99249.26065012 -.00000143  00000-0  00000-0 0  6441
2 23581   0.5205  92.5776 0003182 203.3209  41.7610  1.00260861 15719
1 23581U 95025A   99249.26065012 -.00000143  00000-0  00000+0 0  6440
2 23581   0.5205  92.5776 0003182 203.3209  41.7610  1.00260861 15719
1 23581U 95025A   99249.26065012 -.00000143  00000-0  00000-0 0  6452
2 23581   0.5205  92.5776 0003182 203.3209  41.7610  1.00260861 15719
1 23581U 95025A   99250.33471689 -.00000144  00000-0  00000+0 0  6453
2 23581   0.5230  92.5631 0003160 203.8388  68.9373  1.00260810 15739
1 23581U 95025A   99250.33471689 -.00000144  00000-0  00000-0 0  6454
2 23581   0.5230  92.5631 0003160 203.8388  68.9373  1.00260810 15739
1 23581U 95025A   99250.33471689 -.00000144  00000-0  00000-0 0  6465
2 23581   0.5230  92.5631 0003160 203.8388  68.9373  1.00260810 15739
1 23581U 95025A   99251.33620036 -.00000144  00000-0  00000-0 0  6479
2 23581   0.5255  92.5655 0003136 203.9341  70.3194  1.00260743 15749
1 23581U 95025A   99251.33620036 -.00000144  00000-0  00000+0 0  6478
2 23581   0.5255  92.5655 0003136 203.9341  70.3194  1.00260743 15749
1 23581U 95025A   99251.33620036 -.00000144  00000-0  00000-0 0  6480
2 23581   0.5255  92.5655 0003136 203.9341  70.3194  1.00260743 15749
1 23581U 95025A   99252.30986609 -.00000143  00000-0  00000-0 0  6499
2 23581   0.5276  92.5718 0003069 204.0383  61.6484  1.00260679 15748
1 23581U 95025A   99253.31136226 -.00000141  00000-0  00000+0 0  6502
2 23581   0.5299  92.5622 0002822 205.6290  61.5532  1.00260608 15753
1 23581U 95025A   99253.31136226 -.00000141  00000-0  00000-0 0  6503
2 23581   0.5299  92.5622 0002822 205.6290  61.5532  1.00260608 15753
1 23581U 95025A   99253.31136226 -.00000141  00000-0  00000-0 0  6514
2 23581   0.5299  92.5622 0002822 205.6290  61.5532  1.00260608 15753
1 23581U 95025A   99256.31683811 -.00000131  00000-0  00000-0 0  6546
2 23581   0.5364  92.5286 0002618 204.6801  67.3481  1.00260476 15796
1 23581U 95025A   99256.31683811 -.00000131  00000-0  00000-0 0  6557
2 23581   0.5364  92.5286 0002618 204.6801  67.3481  1.00260476 15796
1 23581U 95025A   99257.58060036 -.00000127  00000-0  00000+0 0  6560
2 23581   0.5392  92.5673 0002868 195.2737 172.8555  1.00260347 15800
1 23581U 95025A   99257.58060036 -.00000127  00000-0  00000-0 0  6561
2 23581   0.5392  92.5673 0002868 195.2737 172.8555  1.00260347 15800
1 23581U 95025A   99258.43657616 -.00000125  00000-0  00000+0 0  6570
2 23581   0.5410  92.4897 0002620 193.3501 123.8170  1.00260281 15819
1 23581U 95025A   99258.43657616 -.00000125  00000-0  00000-0 0  6571
2 23581   0.5410  92.4897 0002620 193.3501 123.8170  1.00260281 15819
1 23581U 95025A   99259.30563112 -.00000124  00000-0  00000-0 0  6585
2 23581   0.5427  92.4797 0002706 192.9615  77.8964  1.00260267 15826
1 23581U 95025A   99259.44958229 -.00000123  00000-0  00000-0 0  6586
2 23581   0.5431  92.4861 0002706 193.1016 129.7082  1.00260262 15824
1 23581U 95025A   99259.44958229 -.00000123  00000-0  00000-0 0  6597
2 23581   0.5431  92.4861 0002706 193.1016 129.7082  1.00260262 15824
1 23581U 95025A   99260.53969582 -.00000122  00000-0  00000-0 0  6592
2 23581   0.5454  92.4640 0002720 193.0010 163.3002  1.00260215 15838
1 23581U 95025A   99260.53969582 -.00000122  00000-0  00000-0 0  6604
2 23581   0.5454  92.4640 0002720 193.0010 163.3002  1.00260215 15838
1 23581U 95025A   99263.39792484 -.00000120  00000-0  00000-0 0  6648
2 23581   0.5519  92.3949 0002755 192.5518 115.4795  1.00260144 15867
1 23581U 95025A   99263.39792484 -.00000120  00000-0  00000-0 0  6659
2 23581   0.5519  92.3949 0002755 192.5518 115.4795  1.00260144 15867
1 23581U 95025A   99263.39792484 -.00000120  00000-0  00000-0 0  6660
2 23581   0.5519  92.3949 0002755 192.5518 115.4795  1.00260144 15867
1 23581U 95025A   99263.39792484 -.00000120  00000-0  00000-0 0  6671
2 23581   0.5519  92.3949 0002755 192.5518 115.4795  1.00260144 15867
1 23581U 95025A   99266.25234632 -.00000120  00000-0  00000+0 0  6685
2 23581   0.5581  92.4566 0003486 194.2515  63.9952  1.00260006 15881
1 23581U 95025A   99266.25234632 -.00000120  00000-0  00000-0 0  6686
2 23581   0.5581  92.4566 0003486 194.2515  63.9952  1.00260006 15881
1 23581U 95025A   99267.21339786 -.00000119  00000-0  00000-0 0  6698
2 23581   0.5596  92.4893 0003596 180.6774  64.4369  1.00260344 15892
1 23581U 95025A   99269.22825190 -.00000119  00000-0  00000-0 0  6713
2 23581   0.5636  92.4869 0004247 190.0398  62.3085  1.00259993 15914
1 23581U 95025A   99269.35769988 -.00000119  00000-0  00000-0 0  6731
2 23581   0.5631  92.4371 0004300 190.3462 108.7765  1.00260020 15926
1 23581U 95025A   99270.34337154 -.00000119  00000-0  00000-0 0  6749
2 23581   0.5652  92.4247 0004308 190.3956 104.5105  1.00259986 15939
1 23581U 95025A   99270.34337154 -.00000119  00000-0  00000+0 0  6748
2 23581   0.5652  92.4247 0004308 190.3956 104.5105  1.00259986 15939
1 23581U 95025A   99270.34337154 -.00000119  00000-0  00000-0 0  6749
2 23581   0.5652  92.4247 0004308 190.3956 104.5105  1.00259986 15939
1 23581U 95025A   99271.16122194 -.00000120  00000-0  00000-0 0  6759
2 23581   0.5670  92.4360 0004266 190.1239  39.9693  1.00259977 15933
1 23581U 95025A   99271.59644721 -.00000121  00000-0  00000+0 0  6762
2 23581   0.5681  92.4389 0004861 188.9373 198.2377  1.00259956 15947
1 23581U 95025A   99271.59644721 -.00000121  00000-0  00000-0 0  6763
2 23581   0.5681  92.4389 0004861 188.9373 198.2377  1.00259956 15947
1 23581U 95025A   99271.59644721 -.00000121  00000-0  00000-0 0  6774
2 23581   0.5681  92.4389 0004861 188.9373 198.2377  1.00259956 15947
1 23581U 95025A   99273.34150010 -.00000124  00000-0  00000-0 0  6786
2 23581   0.5716  92.3715 0004563 186.1551 110.9539  1.00259928 15967
1 23581U 95025A   99273.34150010 -.00000124  00000-0  00000+0 0  6785
2 23581   0.5716  92.3715 0004563 186.1551 110.9539  1.00259928 15967
1 23581U 95025A   99274.37989258 -.00000127  00000-0  00000-0 0  6811
2 23581   0.5738  92.3299 0004512 185.6553 126.2942  1.00259874 15977
1 23581U 95025A   99275.37858659 -.00000129  00000-0  00000-0 0  6836
2 23581   0.5742  92.3531 0004055 180.4217 131.9778  1.00259689 15988
1 23581U 95025A   99277.25480015 -.00000133  00000-0  00000+0 0  6858
2 23581   0.5795  92.2725 0003825 186.0853  83.6002  1.00259732 16008
1 23581U 95025A   99277.25480015 -.00000133  00000-0  00000-0 0  6859
2 23581   0.5795  92.2725 0003825 186.0853  83.6002  1.00259732 16008
1 23581U 95025A   99277.34930532 -.00000133  00000-0  00000-0 0  6864
2 23581   0.5797  92.2645 0003809 185.6546 118.1484  1.00259708 16008
1 23581U 95025A   99278.31851296 -.00000133  00000-0  00000-0 0  6872
2 23581   0.5807  92.3274 0004406 179.5464 114.0096  1.00259421 16011
